start=new Date('2022-09-03T00:00:00.000Z').valueOf();
sats=[{"COUNTRY_CODE":"US","MEAN_ANOMALY":"275.5277","RA_OF_ASC_NODE":"1.1794","DECAY_DATE":null,"REV_AT_EPOCH":"11122","PERIAPSIS":"546.334","OBJECT_TYPE":"PAYLOAD","GP_ID":"211530923","MEAN_MOTION":"15.06394632","REF_FRAME":"TEME","TLE_LINE1":"1 46348U 20062Z   22245.58543378  .00001635  00000-0  12862-3 0  9990","CENTER_NAME":"EARTH","FILE":"3555114","EPHEMERIS_TYPE":"0","SITE":"AFETR","CLASSIFICATION_TYPE":"U","ECCENTRICITY":"0.00012940","TLE_LINE2":"2 46348  53.0566   1.1794 0001294  84.5859 275.5277 15.06394632111220","MEAN_MOTION_DOT":"0.00001635","NORAD_CAT_ID":"46348","MEAN_ELEMENT_THEORY":"SGP4","EPOCH":"2022-09-02T14:03:01.478592","LAUNCH_DATE":"2020-09-03","ELEMENT_SET_NO":"999","MEAN_MOTION_DDOT":"0.0000000000000","BSTAR":"0.00012862000000","SEMIMAJOR_AXIS":"6925.365","ARG_OF_PERICENTER":"84.5859","TIME_SYSTEM":"UTC","APOAPSIS":"548.126","PERIOD":"95.592","RCS_SIZE":"LARGE","INCLINATION":"53.0566","OBJECT_ID":"2020-062Z","OBJECT_NAME":"STARLINK-1553"},{"TIME_SYSTEM":"UTC","APOAPSIS":"548.082","PERIOD":"95.591","RCS_SIZE":"LARGE","ARG_OF_PERICENTER":"71.3438","OBJECT_NAME":"STARLINK-1575","OBJECT_ID":"2020-062AA","INCLINATION":"53.0562","MEAN_MOTION_DDOT":"0.0000000000000","ELEMENT_SET_NO":"999","LAUNCH_DATE":"2020-09-03","BSTAR":"0.00041013000000","SEMIMAJOR_AXIS":"6925.271","FILE":"3555599","EPHEMERIS_TYPE":"0","SITE":"AFETR","MEAN_MOTION_DOT":"0.00005837","MEAN_ELEMENT_THEORY":"SGP4","NORAD_CAT_ID":"46349","EPOCH":"2022-09-02T15:33:53.460288","CLASSIFICATION_TYPE":"U","ECCENTRICITY":"0.00013660","TLE_LINE2":"2 46349  53.0562 335.9052 0001366  71.3438 288.7700 15.06425309111402","REV_AT_EPOCH":"11140","PERIAPSIS":"546.190","GP_ID":"211586259","OBJECT_TYPE":"PAYLOAD","COUNTRY_CODE":"US","MEAN_ANOMALY":"288.7700","DECAY_DATE":null,"RA_OF_ASC_NODE":"335.9052","REF_FRAME":"TEME","TLE_LINE1":"1 46349U 20062AA  22245.64853542  .00005837  00000-0  41013-3 0  9993","CENTER_NAME":"EARTH","MEAN_MOTION":"15.06425309"},{"ARG_OF_PERICENTER":"84.9607","RCS_SIZE":"LARGE","TIME_SYSTEM":"UTC","APOAPSIS":"548.047","PERIOD":"95.592","INCLINATION":"53.0562","OBJECT_ID":"2020-062AB","OBJECT_NAME":"STARLINK-1617","ELEMENT_SET_NO":"999","LAUNCH_DATE":"2020-09-03","MEAN_MOTION_DDOT":"0.0000000000000","SEMIMAJOR_AXIS":"6925.319","BSTAR":"-0.00004066000000","SITE":"AFETR","FILE":"3555599","EPHEMERIS_TYPE":"0","TLE_LINE2":"2 46350  53.0562  20.7784 0001246  84.9607 275.1524 15.06409485110781","CLASSIFICATION_TYPE":"U","ECCENTRICITY":"0.00012460","EPOCH":"2022-09-02T16:18:23.243616","NORAD_CAT_ID":"46350","MEAN_ELEMENT_THEORY":"SGP4","MEAN_MOTION_DOT":"-0.00000887","MEAN_ANOMALY":"275.1524","DECAY_DATE":null,"RA_OF_ASC_NODE":"20.7784","COUNTRY_CODE":"US","REV_AT_EPOCH":"11078","PERIAPSIS":"546.322","GP_ID":"211587508","OBJECT_TYPE":"PAYLOAD","MEAN_MOTION":"15.06409485","CENTER_NAME":"EARTH","REF_FRAME":"TEME","TLE_LINE1":"1 46350U 20062AB  22245.67943569 -.00000887  00000-0 -40660-4 0  9997"},{"EPHEMERIS_TYPE":"0","FILE":"3555599","SITE":"AFETR","ECCENTRICITY":"0.00012370","CLASSIFICATION_TYPE":"U","TLE_LINE2":"2 46351  53.0563   0.4241 0001237  80.5023 279.6106 15.06395905111080","MEAN_MOTION_DOT":"0.00001046","MEAN_ELEMENT_THEORY":"SGP4","EPOCH":"2022-09-02T18:00:30.970080","NORAD_CAT_ID":"46351","COUNTRY_CODE":"US","RA_OF_ASC_NODE":"0.4241","DECAY_DATE":null,"MEAN_ANOMALY":"279.6106","OBJECT_TYPE":"PAYLOAD","GP_ID":"211587747","REV_AT_EPOCH":"11108","PERIAPSIS":"546.369","MEAN_MOTION":"15.06395905","TLE_LINE1":"1 46351U 20062AC  22245.75035845  .00001046  00000-0  89139-4 0  9996","REF_FRAME":"TEME","CENTER_NAME":"EARTH","ARG_OF_PERICENTER":"80.5023","PERIOD":"95.592","TIME_SYSTEM":"UTC","APOAPSIS":"548.083","RCS_SIZE":"LARGE","INCLINATION":"53.0563","OBJECT_NAME":"STARLINK-1646","OBJECT_ID":"2020-062AC","LAUNCH_DATE":"2020-09-03","ELEMENT_SET_NO":"999","MEAN_MOTION_DDOT":"0.0000000000000","BSTAR":"0.00008913900000","SEMIMAJOR_AXIS":"6925.361"},{"SEMIMAJOR_AXIS":"6925.340","BSTAR":"0.00007798700000","ELEMENT_SET_NO":"999","LAUNCH_DATE":"2020-09-03","MEAN_MOTION_DDOT":"0.0000000000000","INCLINATION":"53.0583","OBJECT_ID":"2020-062AD","OBJECT_NAME":"STARLINK-1653","ARG_OF_PERICENTER":"98.0971","RCS_SIZE":"LARGE","TIME_SYSTEM":"UTC","APOAPSIS":"548.041","PERIOD":"95.592","MEAN_MOTION":"15.06402811","CENTER_NAME":"EARTH","TLE_LINE1":"1 46352U 20062AD  22245.73286793  .00000881  00000-0  77987-4 0  9999","REF_FRAME":"TEME","MEAN_ANOMALY":"262.0155","DECAY_DATE":null,"RA_OF_ASC_NODE":"0.5264","COUNTRY_CODE":"US","PERIAPSIS":"546.369","REV_AT_EPOCH":"11107","GP_ID":"211586510","OBJECT_TYPE":"PAYLOAD","TLE_LINE2":"2 46352  53.0583   0.5264 0001207  98.0971 262.0155 15.06402811111076","CLASSIFICATION_TYPE":"U","ECCENTRICITY":"0.00012070","EPOCH":"2022-09-02T17:35:19.789152","NORAD_CAT_ID":"46352","MEAN_ELEMENT_THEORY":"SGP4","MEAN_MOTION_DOT":"0.00000881","SITE":"AFETR","FILE":"3555599","EPHEMERIS_TYPE":"0"},{"LAUNCH_DATE":"2020-09-03","ELEMENT_SET_NO":"999","MEAN_MOTION_DDOT":"0.0000000000000","SEMIMAJOR_AXIS":"6925.362","BSTAR":"0.00006303900000","ARG_OF_PERICENTER":"80.1277","RCS_SIZE":"LARGE","TIME_SYSTEM":"UTC","APOAPSIS":"548.284","PERIOD":"95.592","INCLINATION":"53.0553","OBJECT_ID":"2020-062AE","OBJECT_NAME":"STARLINK-1656","MEAN_ANOMALY":"279.9884","RA_OF_ASC_NODE":"20.8394","DECAY_DATE":null,"COUNTRY_CODE":"US","PERIAPSIS":"546.169","REV_AT_EPOCH":"11077","OBJECT_TYPE":"PAYLOAD","GP_ID":"211586759","MEAN_MOTION":"15.06395737","CENTER_NAME":"EARTH","REF_FRAME":"TEME","TLE_LINE1":"1 46353U 20062AE  22245.66468429  .00000657  00000-0  63039-4 0  9994","SITE":"AFETR","FILE":"3555599","EPHEMERIS_TYPE":"0","TLE_LINE2":"2 46353  53.0553  20.8394 0001527  80.1277 279.9884 15.06395737110779","CLASSIFICATION_TYPE":"U","ECCENTRICITY":"0.00015270","MEAN_ELEMENT_THEORY":"SGP4","EPOCH":"2022-09-02T15:57:08.722656","NORAD_CAT_ID":"46353","MEAN_MOTION_DOT":"0.00000657"},{"TLE_LINE2":"2 46354  53.0572  20.8743 0001398  83.1633 276.9515 15.06379285110772","CLASSIFICATION_TYPE":"U","ECCENTRICITY":"0.00013980","MEAN_ELEMENT_THEORY":"SGP4","EPOCH":"2022-09-02T15:41:13.879968","NORAD_CAT_ID":"46354","MEAN_MOTION_DOT":"0.00004703","SITE":"AFETR","FILE":"3555599","EPHEMERIS_TYPE":"0","MEAN_MOTION":"15.06379285","CENTER_NAME":"EARTH","REF_FRAME":"TEME","TLE_LINE1":"1 46354U 20062AF  22245.65363287  .00004703  00000-0  33461-3 0  9991","MEAN_ANOMALY":"276.9515","DECAY_DATE":null,"RA_OF_ASC_NODE":"20.8743","COUNTRY_CODE":"US","REV_AT_EPOCH":"11077","PERIAPSIS":"546.309","GP_ID":"211587011","OBJECT_TYPE":"PAYLOAD","INCLINATION":"53.0572","OBJECT_ID":"2020-062AF","OBJECT_NAME":"STARLINK-1657","ARG_OF_PERICENTER":"83.1633","RCS_SIZE":"LARGE","TIME_SYSTEM":"UTC","APOAPSIS":"548.245","PERIOD":"95.593","SEMIMAJOR_AXIS":"6925.412","BSTAR":"0.00033461000000","LAUNCH_DATE":"2020-09-03","ELEMENT_SET_NO":"999","MEAN_MOTION_DDOT":"0.0000000000000"},{"MEAN_MOTION":"15.06401572","REF_FRAME":"TEME","TLE_LINE1":"1 46355U 20062AG  22245.49512447  .00001030  00000-0  88008-4 0  9996","CENTER_NAME":"EARTH","COUNTRY_CODE":"US","MEAN_ANOMALY":"254.5075","RA_OF_ASC_NODE":"21.6043","DECAY_DATE":null,"REV_AT_EPOCH":"11093","PERIAPSIS":"546.340","GP_ID":"211561769","OBJECT_TYPE":"PAYLOAD","CLASSIFICATION_TYPE":"U","ECCENTRICITY":"0.00012550","TLE_LINE2":"2 46355  53.0556  21.6043 0001255 105.6053 254.5075 15.06401572110931","MEAN_MOTION_DOT":"0.00001030","EPOCH":"2022-09-02T11:52:58.754208","MEAN_ELEMENT_THEORY":"SGP4","NORAD_CAT_ID":"46355","FILE":"3555362","EPHEMERIS_TYPE":"0","SITE":"AFETR","BSTAR":"0.00008800800000","SEMIMAJOR_AXIS":"6925.344","LAUNCH_DATE":"2020-09-03","ELEMENT_SET_NO":"999","MEAN_MOTION_DDOT":"0.0000000000000","INCLINATION":"53.0556","OBJECT_NAME":"STARLINK-1661","OBJECT_ID":"2020-062AG","ARG_OF_PERICENTER":"105.6053","TIME_SYSTEM":"UTC","APOAPSIS":"548.078","PERIOD":"95.592","RCS_SIZE":"LARGE"},{"ECCENTRICITY":"0.00013290","CLASSIFICATION_TYPE":"U","TLE_LINE2":"2 46356  53.0578  20.0549 0001329  97.2669 262.8471 15.06399428110805","MEAN_MOTION_DOT":"0.00001730","MEAN_ELEMENT_THEORY":"SGP4","EPOCH":"2022-09-02T20:05:14.252928","NORAD_CAT_ID":"46356","EPHEMERIS_TYPE":"0","FILE":"3555599","SITE":"AFETR","MEAN_MOTION":"15.06399428","TLE_LINE1":"1 46356U 20062AH  22245.83697052  .00001730  00000-0  13499-3 0  9999","REF_FRAME":"TEME","CENTER_NAME":"EARTH","COUNTRY_CODE":"US","DECAY_DATE":null,"RA_OF_ASC_NODE":"20.0549","MEAN_ANOMALY":"262.8471","OBJECT_TYPE":"PAYLOAD","GP_ID":"211586011","REV_AT_EPOCH":"11080","PERIAPSIS":"546.295","INCLINATION":"53.0578","OBJECT_NAME":"STARLINK-1665","OBJECT_ID":"2020-062AH","ARG_OF_PERICENTER":"97.2669","PERIOD":"95.592","APOAPSIS":"548.136","TIME_SYSTEM":"UTC","RCS_SIZE":"LARGE","BSTAR":"0.00013499000000","SEMIMAJOR_AXIS":"6925.350","LAUNCH_DATE":"2020-09-03","ELEMENT_SET_NO":"999","MEAN_MOTION_DDOT":"0.0000000000000"},{"OBJECT_ID":"2020-062AJ","OBJECT_NAME":"STARLINK-1666","INCLINATION":"53.0575","RCS_SIZE":"LARGE","APOAPSIS":"548.188","TIME_SYSTEM":"UTC","PERIOD":"95.593","ARG_OF_PERICENTER":"82.7033","SEMIMAJOR_AXIS":"6925.368","BSTAR":"0.00008619800000","MEAN_MOTION_DDOT":"0.0000000000000","LAUNCH_DATE":"2020-09-03","ELEMENT_SET_NO":"999","NORAD_CAT_ID":"46357","MEAN_ELEMENT_THEORY":"SGP4","EPOCH":"2022-09-02T12:06:15.577344","MEAN_MOTION_DOT":"0.00001002","TLE_LINE2":"2 46357  53.0575   1.5470 0001379  82.7033 277.4113 15.06393656111217","CLASSIFICATION_TYPE":"U","ECCENTRICITY":"0.00013790","SITE":"AFETR","FILE":"3554790","EPHEMERIS_TYPE":"0","CENTER_NAME":"EARTH","TLE_LINE1":"1 46357U 20062AJ  22245.50434696  .00001002  00000-0  86198-4 0  9996","REF_FRAME":"TEME","MEAN_MOTION":"15.06393656","PERIAPSIS":"546.278","REV_AT_EPOCH":"11121","GP_ID":"211522488","OBJECT_TYPE":"PAYLOAD","MEAN_ANOMALY":"277.4113","RA_OF_ASC_NODE":"1.5470","DECAY_DATE":null,"COUNTRY_CODE":"US"}];
